[
    {
        "Altitude(m)": 702878.953271008,
        "Argument of Periapsis(deg)": 0.006834072711976239,
        "Eccentricity": 0.0,
        "Inclination(deg)": 45.0,
        "Latitude(deg)": 17.96982876063776,
        "Longitude(deg)": 55.728155983948454,
        "Mean Anomaly(deg)": -205.80737001151155,
        "RAAN(deg)": 354.9935488351251,
        "Satellite Name": "Constellation 1 1571",
        "Satellite Number": 1571,
        "Semi-Major Axis(m)": 7083131.272910544,
        "Time(s)": 114
    },
    {
        "Altitude(m)": 702876.4047942742,
        "Argument of Periapsis(deg)": 0.006894020718221645,
        "Eccentricity": 0.0,
        "Inclination(deg)": 45.0,
        "Latitude(deg)": 17.92893971365868,
        "Longitude(deg)": 55.77138994311446,
        "Mean Anomaly(deg)": -205.74666887126165,
        "RAAN(deg)": 354.9934922459595,
        "Satellite Name": "Constellation 1 1571",
        "Satellite Number": 1571,
        "Semi-Major Axis(m)": 7083131.272910544,
        "Time(s)": 115
    },
    {
        "Altitude(m)": 702873.8717678079,
        "Argument of Periapsis(deg)": 0.006953968724467052,
        "Eccentricity": 0.0,
        "Inclination(deg)": 45.0,
        "Latitude(deg)": 17.888038998478574,
        "Longitude(deg)": 55.81460216281867,
        "Mean Anomaly(deg)": -205.6859677310117,
        "RAAN(deg)": 354.9934356567939,
        "Satellite Name": "Constellation 1 1571",
        "Satellite Number": 1571,
        "Semi-Major Axis(m)": 7083131.272910544,
        "Time(s)": 116
    },
    {
        "Altitude(m)": 702871.3542202292,
        "Argument of Periapsis(deg)": 0.007013916730712457,
        "Eccentricity": 0.0,
        "Inclination(deg)": 45.0,
        "Latitude(deg)": 17.84712664871098,
        "Longitude(deg)": 55.85779269971189,
        "Mean Anomaly(deg)": -205.62526659076184,
        "RAAN(deg)": 354.9933790676284,
        "Satellite Name": "Constellation 1 1571",
        "Satellite Number": 1571,
        "Semi-Major Axis(m)": 7083131.272910544,
        "Time(s)": 117
    },
    {
        "Altitude(m)": 702868.8521801006,
        "Argument of Periapsis(deg)": 0.007073864736957864,
        "Eccentricity": 0.0,
        "Inclination(deg)": 45.0,
        "Latitude(deg)": 17.806202697926476,
        "Longitude(deg)": 55.90096161041448,
        "Mean Anomaly(deg)": -205.5645654505119,
        "RAAN(deg)": 354.9933224784628,
        "Satellite Name": "Constellation 1 1571",
        "Satellite Number": 1571,
        "Semi-Major Axis(m)": 7083131.272910544,
        "Time(s)": 118
    },
    {
        "Altitude(m)": 702866.3656759231,
        "Argument of Periapsis(deg)": 0.0071338127432032696,
        "Eccentricity": 0.0,
        "Inclination(deg)": 45.0,
        "Latitude(deg)": 17.765267179653215,
        "Longitude(deg)": 55.94410878341872,
        "Mean Anomaly(deg)": -205.50386431026206,
        "RAAN(deg)": 354.9932658892973,
        "Satellite Name": "Constellation 1 1571",
        "Satellite Number": 1571,
        "Semi-Major Axis(m)": 7083131.272910544,
        "Time(s)": 119
    },
    {
        "Altitude(m)": 702863.8947361374,
        "Argument of Periapsis(deg)": 0.007193760749448674,
        "Eccentricity": 0.0,
        "Inclination(deg)": 45.0,
        "Latitude(deg)": 17.724320127377187,
        "Longitude(deg)": 55.98723461147749,
        "Mean Anomaly(deg)": -205.44316317001213,
        "RAAN(deg)": 354.99320930013164,
        "Satellite Name": "Constellation 1 1571",
        "Satellite Number": 1571,
        "Semi-Major Axis(m)": 7083131.272910544,
        "Time(s)": 120
    },
    {
        "Altitude(m)": 702861.4393891181,
        "Argument of Periapsis(deg)": 0.007253708755694079,
        "Eccentricity": 0.0,
        "Inclination(deg)": 45.0,
        "Latitude(deg)": 17.68336157454162,
        "Longitude(deg)": 56.030338983021785,
        "Mean Anomaly(deg)": -205.3824620297622,
        "RAAN(deg)": 354.99315271096606,
        "Satellite Name": "Constellation 1 1571",
        "Satellite Number": 1571,
        "Semi-Major Axis(m)": 7083131.272910544,
        "Time(s)": 121
    },
    {
        "Altitude(m)": 702858.9996631815,
        "Argument of Periapsis(deg)": 0.0073136567619394854,
        "Eccentricity": 0.0,
        "Inclination(deg)": 45.0,
        "Latitude(deg)": 17.642391554547835,
        "Longitude(deg)": 56.0734219545484,
        "Mean Anomaly(deg)": -205.32176088951232,
        "RAAN(deg)": 354.99309612180053,
        "Satellite Name": "Constellation 1 1571",
        "Satellite Number": 1571,
        "Semi-Major Axis(m)": 7083131.272910544,
        "Time(s)": 122
    },
    {
        "Altitude(m)": 702856.5755865775,
        "Argument of Periapsis(deg)": 0.0073736047681848904,
        "Eccentricity": 0.0,
        "Inclination(deg)": 45.0,
        "Latitude(deg)": 17.601410100754837,
        "Longitude(deg)": 56.11648358252363,
        "Mean Anomaly(deg)": -205.2610597492624,
        "RAAN(deg)": 354.99303953263495,
        "Satellite Name": "Constellation 1 1571",
        "Satellite Number": 1571,
        "Semi-Major Axis(m)": 7083131.272910544,
        "Time(s)": 123
    },
    {
        "Altitude(m)": 702854.1671875007,
        "Argument of Periapsis(deg)": 0.007433552774430298,
        "Eccentricity": 0.0,
        "Inclination(deg)": 45.0,
        "Latitude(deg)": 17.560417246479766,
        "Longitude(deg)": 56.15952392338283,
        "Mean Anomaly(deg)": -205.20035860901254,
        "RAAN(deg)": 354.99298294346937,
        "Satellite Name": "Constellation 1 1571",
        "Satellite Number": 1571,
        "Semi-Major Axis(m)": 7083131.272910544,
        "Time(s)": 124
    },
    {
        "Altitude(m)": 702851.7744940835,
        "Argument of Periapsis(deg)": 0.007493500780675703,
        "Eccentricity": 0.0,
        "Inclination(deg)": 45.0,
        "Latitude(deg)": 17.519413024997867,
        "Longitude(deg)": 56.20254303353038,
        "Mean Anomaly(deg)": -205.1396574687626,
        "RAAN(deg)": 354.99292635430385,
        "Satellite Name": "Constellation 1 1571",
        "Satellite Number": 1571,
        "Semi-Major Axis(m)": 7083131.272910544,
        "Time(s)": 125
    },
    {
        "Altitude(m)": 702849.3975343889,
        "Argument of Periapsis(deg)": 0.007553448786921108,
        "Eccentricity": 0.0,
        "Inclination(deg)": 45.0,
        "Latitude(deg)": 17.4783974695425,
        "Longitude(deg)": 56.245540801242655,
        "Mean Anomaly(deg)": -205.0789563285128,
        "RAAN(deg)": 354.9928697651382,
        "Satellite Name": "Constellation 1 1571",
        "Satellite Number": 1571,
        "Semi-Major Axis(m)": 7083131.272910544,
        "Time(s)": 126
    },
    {
        "Altitude(m)": 702847.0363364198,
        "Argument of Periapsis(deg)": 0.007613396793166514,
        "Eccentricity": 0.0,
        "Inclination(deg)": 45.0,
        "Latitude(deg)": 17.437370613305784,
        "Longitude(deg)": 56.28851761905662,
        "Mean Anomaly(deg)": -205.01825518826283,
        "RAAN(deg)": 354.9928131759727,
        "Satellite Name": "Constellation 1 1571",
        "Satellite Number": 1571,
        "Semi-Major Axis(m)": 7083131.272910544,
        "Time(s)": 127
    },
    {
        "Altitude(m)": 702844.6909281233,
        "Argument of Periapsis(deg)": 0.007673344799411918,
        "Eccentricity": 0.0,
        "Inclination(deg)": 45.0,
        "Latitude(deg)": 17.39633248943789,
        "Longitude(deg)": 56.331473375186846,
        "Mean Anomaly(deg)": -204.9575540480129,
        "RAAN(deg)": 354.9927565868071,
        "Satellite Name": "Constellation 1 1571",
        "Satellite Number": 1571,
        "Semi-Major Axis(m)": 7083131.272910544,
        "Time(s)": 128
    },
    {
        "Altitude(m)": 702842.3613373731,
        "Argument of Periapsis(deg)": 0.007733292805657325,
        "Eccentricity": 0.0,
        "Inclination(deg)": 45.0,
        "Latitude(deg)": 17.35528313104784,
        "Longitude(deg)": 56.37440812591388,
        "Mean Anomaly(deg)": -204.89685290776305,
        "RAAN(deg)": 354.9926999976415,
        "Satellite Name": "Constellation 1 1571",
        "Satellite Number": 1571,
        "Semi-Major Axis(m)": 7083131.272910544,
        "Time(s)": 129
    },
    {
        "Altitude(m)": 702840.0475919897,
        "Argument of Periapsis(deg)": 0.00779324081190273,
        "Eccentricity": 0.0,
        "Inclination(deg)": 45.0,
        "Latitude(deg)": 17.31422257120319,
        "Longitude(deg)": 56.417321927487606,
        "Mean Anomaly(deg)": -204.8361517675132,
        "RAAN(deg)": 354.992643408476,
        "Satellite Name": "Constellation 1 1571",
        "Satellite Number": 1571,
        "Semi-Major Axis(m)": 7083131.272910544,
        "Time(s)": 130
    },
    {
        "Altitude(m)": 702837.749719719,
        "Argument of Periapsis(deg)": 0.007853188818148135,
        "Eccentricity": 0.0,
        "Inclination(deg)": 45.0,
        "Latitude(deg)": 17.273150842930256,
        "Longitude(deg)": 56.460214836126774,
        "Mean Anomaly(deg)": -204.77545062726318,
        "RAAN(deg)": 354.9925868193104,
        "Satellite Name": "Constellation 1 1571",
        "Satellite Number": 1571,
        "Semi-Major Axis(m)": 7083131.272910544,
        "Time(s)": 131
    },
    {
        "Altitude(m)": 702835.4677482595,
        "Argument of Periapsis(deg)": 0.007913136824393542,
        "Eccentricity": 0.0,
        "Inclination(deg)": 45.0,
        "Latitude(deg)": 17.23206797921459,
        "Longitude(deg)": 56.50308690801913,
        "Mean Anomaly(deg)": -204.71474948701334,
        "RAAN(deg)": 354.99253023014484,
        "Satellite Name": "Constellation 1 1571",
        "Satellite Number": 1571,
        "Semi-Major Axis(m)": 7083131.272910544,
        "Time(s)": 132
    }
]